NORAD_CAT_ID,OBJECT_NAME,OBJECT_TYPE,EPOCH,MEAN_MOTION,ECCENTRICITY,INCLINATION,RA_OF_ASC_NODE,ARG_OF_PERICENTER,MEAN_ANOMALY,BSTAR,MEAN_MOTION_DOT,MEAN_MOTION_DDOT,TLE_LINE0,TLE_LINE1,TLE_LINE2,SEMIMAJOR_AXIS,PERIOD,APOGEE,PERIGEE,DECAYED
55303.0,STARLINK-5322,PAYLOAD,2024-03-28 13:57:44,14.98331113,0.0002464,70.0025,37.2156,274.9223,85.1655,0.00010415,1.15e-05,0.0,0 STARLINK-5322,1 55303U 23010AL  24088.58176842  .00001150  00000-0  10415-3 0  9996,2 55303  70.0025  37.2156 0002464 274.9223  85.1655 14.98331113 66265,6950.189,96.107,573.767,570.342,0.0
55303.0,STARLINK-5322,PAYLOAD,2024-03-28 20:22:16,14.98333577,0.0002864,70.0021,36.5418,270.6356,89.4475,8.6688e-05,9.42e-06,0.0,0 STARLINK-5322,1 55303U 23010AL  24088.84880491  .00000942  00000-0  86688-4 0  9991,2 55303  70.0021  36.5418 0002864 270.6356  89.4475 14.98333577 66003,6950.182,96.107,574.037,570.056,0.0
55303.0,STARLINK-5322,PAYLOAD,2024-03-28 21:58:24,14.98331492,0.000299,70.0018,36.3731,270.6177,89.464,6.9796e-05,7.4e-06,0.0,0 STARLINK-5322,1 55303U 23010AL  24088.91556603  .00000740  00000-0  69796-4 0  9991,2 55303  70.0018  36.3731 0002990 270.6177  89.4640 14.98331492 66318,6950.188,96.107,574.131,569.975,0.0
55303.0,STARLINK-5322,PAYLOAD,2024-03-29 13:59:45,14.98332042,0.0002229,70.0027,34.6932,266.7485,93.3419,1.9628e-06,-6.9e-07,0.0,0 STARLINK-5322,1 55303U 23010AL  24089.58316648 -.00000069  00000-0  19628-5 0  9993,2 55303  70.0027  34.6932 0002229 266.7485  93.3419 14.98332042 66416,6950.187,96.107,573.601,570.502,0.0
55303.0,STARLINK-5322,PAYLOAD,2024-03-29 22:00:25,14.98330321,0.0002704,70.001,33.8511,269.2608,90.8241,7.1626e-05,7.62e-06,0.0,0 STARLINK-5322,1 55303U 23010AL  24089.91696472  .00000762  00000-0  71626-4 0  9990,2 55303  70.0010  33.8511 0002704 269.2608  90.8241 14.98330321 66463,6950.192,96.107,573.936,570.178,0.0
55303.0,STARLINK-5322,PAYLOAD,2024-03-30 04:24:57,14.9833209,0.0002852,70.0008,33.1768,267.0991,92.9841,8.1378e-05,8.78e-06,0.0,0 STARLINK-5322,1 55303U 23010AL  24090.18400266  .00000878  00000-0  81378-4 0  9998,2 55303  70.0008  33.1768 0002852 267.0991  92.9841 14.98332090 66208,6950.186,96.107,574.034,570.069,0.0
55303.0,STARLINK-5322,PAYLOAD,2024-03-30 06:01:05,14.98335682,0.0003033,70.0004,33.009,268.4232,91.658,0.00011446,1.273e-05,0.0,0 STARLINK-5322,1 55303U 23010AL  24090.25075938  .00001273  00000-0  11446-3 0  9998,2 55303  70.0004  33.0090 0003033 268.4232  91.6580 14.98335682 66516,6950.175,96.107,574.148,569.932,0.0
55303.0,STARLINK-5322,PAYLOAD,2024-03-30 22:02:26,14.98328059,0.0003037,70.0007,31.326,269.7171,90.364,0.00010086,1.111e-05,0.0,0 STARLINK-5322,1 55303U 23010AL  24090.91836445  .00001111  00000-0  10086-3 0  9999,2 55303  70.0007  31.3260 0003037 269.7171  90.3640 14.98328059 66613,6950.199,96.107,574.175,569.953,0.0
55303.0,STARLINK-5322,PAYLOAD,2024-03-31 04:26:58,14.98340959,0.0002879,70.0003,30.6522,266.5527,93.5302,4.6063e-05,4.57e-06,0.0,0 STARLINK-5322,1 55303U 23010AL  24091.18539662  .00000457  00000-0  46063-4 0  9997,2 55303  70.0003  30.6522 0002879 266.5527  93.5302 14.98340959 66359,6950.159,96.106,574.025,570.023,0.0
55303.0,STARLINK-5322,PAYLOAD,2024-03-31 06:03:06,14.98339187,0.0002993,70.0005,30.4838,268.421,91.6606,0.00016099,1.829e-05,0.0,0 STARLINK-5322,1 55303U 23010AL  24091.25215564  .00001829  00000-0  16099-3 0  9996,2 55303  70.0005  30.4838 0002993 268.4210  91.6606 14.98339187 66667,6950.164,96.106,574.11,569.949,0.0
55303.0,STARLINK-5322,PAYLOAD,2024-03-31 20:28:19,14.98325997,0.0002934,70.0008,28.9691,267.0402,93.0422,3.1344e-05,2.81e-06,0.0,0 STARLINK-5322,1 55303U 23010AL  24091.85300588  .00000281  00000-0  31344-4 0  9995,2 55303  70.0008  28.9691 0002934 267.0402  93.0422 14.98325997 66455,6950.205,96.107,574.109,570.031,0.0
55303.0,STARLINK-5322,PAYLOAD,2024-03-31 22:04:27,14.98326774,0.0002907,70.001,28.8007,267.2432,92.8394,3.3514e-05,3.07e-06,0.0,0 STARLINK-5322,1 55303U 23010AL  24091.91976552  .00000307  00000-0  33514-4 0  9992,2 55303  70.0010  28.8007 0002907 267.2432  92.8394 14.98326774 66766,6950.203,96.107,574.088,570.047,0.0
55303.0,STARLINK-5322,PAYLOAD,2024-04-01 12:29:39,14.9834838,0.0002763,70.0019,27.2875,265.8536,94.2308,-0.00030677,-3.753e-05,0.0,0 STARLINK-5322,1 55303U 23010AL  24092.52059770 -.00003753  00000-0 -30677-3 0  9990,2 55303  70.0019  27.2875 0002763 265.8536  94.2308 14.98348380 66555,6950.136,96.106,573.921,570.081,0.0
55303.0,STARLINK-5322,PAYLOAD,2024-04-01 20:30:20,14.98334229,0.0002893,70.001,26.4447,266.4189,93.6639,5.1508e-05,5.22e-06,0.0,0 STARLINK-5322,1 55303U 23010AL  24092.85439961  .00000522  00000-0  51508-4 0  9996,2 55303  70.0010  26.4447 0002893 266.4189  93.6639 14.98334229 66600,6950.18,96.107,574.056,570.034,0.0
55303.0,STARLINK-5322,PAYLOAD,2024-04-02 12:31:40,14.98347903,0.000291,70.001,24.7617,266.9294,93.1532,-0.00019388,-2.407e-05,0.0,0 STARLINK-5322,1 55303U 23010AL  24093.52199282 -.00002407  00000-0 -19388-3 0  9995,2 55303  70.0010  24.7617 0002910 266.9294  93.1532 14.98347903 67007,6950.138,96.106,574.025,569.98,0.0
55303.0,STARLINK-5322,PAYLOAD,2024-04-02 20:32:21,14.9832945,0.000272,70.001,23.9205,259.4482,100.6371,1.9596e-05,1.41e-06,0.0,0 STARLINK-5322,1 55303U 23010AL  24093.85580146  .00000141  00000-0  19596-4 0  9997,2 55303  70.0010  23.9205 0002720 259.4482 100.6371 14.98329450 67053,6950.195,96.107,573.95,570.169,0.0
55303.0,STARLINK-5322,PAYLOAD,2024-04-03 02:56:53,14.98329463,0.00028,70.0011,23.2474,261.1744,98.9098,2.6784e-05,2.27e-06,0.0,0 STARLINK-5322,1 55303U 23010AL  24094.12284127  .00000227  00000-0  26784-4 0  9990,2 55303  70.0011  23.2474 0002800 261.1744  98.9098 14.98329463 66794,6950.195,96.107,574.006,570.113,0.0
55303.0,STARLINK-5322,PAYLOAD,2024-04-03 12:33:41,14.98330511,0.0002926,70.0009,22.2368,266.6207,93.4617,2.4012e-05,1.94e-06,0.0,0 STARLINK-5322,1 55303U 23010AL  24094.52340019  .00000194  00000-0  24012-4 0  9992,2 55303  70.0009  22.2368 0002926 266.6207  93.4617 14.98330511 67159,6950.191,96.107,574.09,570.023,0.0
55303.0,STARLINK-5322,PAYLOAD,2024-04-03 20:34:22,14.98329094,0.0002854,70.0009,21.3956,266.9834,93.0998,-1.4992e-05,-2.72e-06,0.0,0 STARLINK-5322,1 55303U 23010AL  24094.85720233 -.00000272  00000-0 -14992-4 0  9993,2 55303  70.0009  21.3956 0002854 266.9834  93.0998 14.98329094 67209,6950.196,96.107,574.044,570.077,0.0
55303.0,STARLINK-5322,PAYLOAD,2024-04-04 04:35:02,14.9833209,0.0002868,70.0009,20.5539,264.2745,95.8087,2.1576e-06,-6.7e-07,0.0,0 STARLINK-5322,1 55303U 23010AL  24095.19099970 -.00000067  00000-0  21576-5 0  9996,2 55303  70.0009  20.5539 0002868 264.2745  95.8087 14.98332090 66954,6950.186,96.107,574.045,570.058,0.0
55303.0,STARLINK-5322,PAYLOAD,2024-04-04 12:35:44,14.98316945,0.0002465,70.0018,19.7128,275.1415,84.9463,-0.00011594,-1.475e-05,0.0,0 STARLINK-5322,1 55303U 23010AL  24095.52481543 -.00001475  00000-0 -11594-3 0  9996,2 55303  70.0018  19.7128 0002465 275.1415  84.9463 14.98316945 67001,6950.233,96.108,573.811,570.385,0.0
55303.0,STARLINK-5322,PAYLOAD,2024-04-04 20:36:26,14.98289975,0.0002849,70.0008,18.8709,270.4264,89.6569,-0.00031762,-3.877e-05,0.0,0 STARLINK-5322,1 55303U 23010AL  24095.85864083 -.00003877  00000-0 -31762-3 0  9993,2 55303  70.0008  18.8709 0002849 270.4264  89.6569 14.98289975 67057,6950.317,96.11,574.162,570.202,0.0
55303.0,STARLINK-5322,PAYLOAD,2024-04-04 22:12:34,14.98290947,0.00028,70.0011,18.7026,269.8059,90.2779,-0.00030027,-3.67e-05,0.0,0 STARLINK-5322,1 55303U 23010AL  24095.92540142 -.00003670  00000-0 -30027-3 0  9992,2 55303  70.0011  18.7026 0002800 269.8059  90.2779 14.98290947 67369,6950.314,96.11,574.125,570.233,0.0
55303.0,STARLINK-5322,PAYLOAD,2024-04-05 04:37:04,14.98329059,0.0002917,70.0007,18.0288,268.1025,91.98,8.6385e-05,9.38e-06,0.0,0 STARLINK-5322,1 55303U 23010AL  24096.19240970  .00000938  00000-0  86385-4 0  9999,2 55303  70.0007  18.0288 0002917 268.1025  91.9800 14.98329059 67103,6950.196,96.107,574.088,570.033,0.0
55303.0,STARLINK-5322,PAYLOAD,2024-04-05 12:37:43,14.98336207,0.0002929,70.0007,17.1876,268.2174,91.865,0.0001516,1.717e-05,0.0,0 STARLINK-5322,1 55303U 23010AL  24096.52620359  .00001717  00000-0  15160-3 0  9997,2 55303  70.0007  17.1876 0002929 268.2174  91.8650 14.98336207 67155,6950.174,96.107,574.074,570.003,0.0
55303.0,STARLINK-5322,PAYLOAD,2024-04-05 22:14:31,14.98341648,0.0002954,70.0005,16.1772,268.6409,91.4412,0.00025156,2.911e-05,0.0,0 STARLINK-5322,1 55303U 23010AL  24096.92675662  .00002911  00000-0  25156-3 0  9991,2 55303  70.0005  16.1772 0002954 268.6409  91.4412 14.98341648 67517,6950.157,96.106,574.075,569.969,0.0
55303.0,STARLINK-5322,PAYLOAD,2024-04-06 03:02:55,14.98349404,0.0002924,70.0005,15.6721,268.132,91.9504,0.00030046,3.496e-05,0.0,0 STARLINK-5322,1 55303U 23010AL  24097.12702952  .00003496  00000-0  30046-3 0  9990,2 55303  70.0005  15.6721 0002924 268.1320  91.9504 14.98349404 67244,6950.133,96.106,574.03,569.966,0.0
55303.0,STARLINK-5322,PAYLOAD,2024-04-06 04:39:03,14.98350931,0.0002901,70.0006,15.5038,268.0562,92.0265,0.00031874,3.714e-05,0.0,0 STARLINK-5322,1 55303U 23010AL  24097.19378800  .00003714  00000-0  31874-3 0  9991,2 55303  70.0006  15.5038 0002901 268.0562  92.0265 14.98350931 67554,6950.128,96.106,574.009,569.977,0.0
55303.0,STARLINK-5322,PAYLOAD,2024-04-06 17:28:08,14.9832086,0.0002623,70.0018,14.1591,270.3855,89.7003,0.0004869,5.72e-05,0.0,0 STARLINK-5322,1 55303U 23010AL  24097.72788108  .00005720  00000-0  48690-3 0  9999,2 55303  70.0018  14.1591 0002623 270.3855  89.7003 14.98320860 67335,6950.221,96.108,573.909,570.263,0.0
55303.0,STARLINK-5322,PAYLOAD,2024-04-06 22:16:33,14.98318071,0.0003002,69.9996,13.6514,270.5427,89.5388,0.00040154,4.7e-05,0.0,0 STARLINK-5322,1 55303U 23010AL  24097.92816621  .00004700  00000-0  40154-3 0  9997,2 55303  69.9996  13.6514 0003002 270.5427  89.5388 14.98318071 67666,6950.23,96.108,574.181,570.008,0.0
